ONEWEB-0327             
1 49196U 21083L   23327.50889639  .00000021  00000+0  20744-4 0  9991
2 49196  87.9207 161.8100 0002055  80.1751 279.9613 13.18687691107853
ONEWEB-0328             
1 49197U 21083M   23327.46607893 -.00000153  00000+0 -45310-3 0  9990
2 49197  87.8976 146.6552 0001660  95.0677 265.0642 13.13470737109228
ONEWEB-0331             
1 49198U 21083N   23327.45302152  .00000000  00000+0 -32335-4 0  9994
2 49198  87.9143 161.8089 0001795  87.6066 272.5272 13.18685130107835
ONEWEB-0333             
1 49199U 21083P   23327.46081164 -.00000222  00000+0 -64213-3 0  9999
2 49199  87.8989 146.6597 0001302  85.1477 274.9801 13.13468343109231
ONEWEB-0334             
1 49200U 21083Q   23327.45401164  .00000109  00000+0  23702-3 0  9997
2 49200  87.9172 100.9644 0000818  76.8341 283.2883 13.20771739114438
ONEWEB-0335             
1 49201U 21083R   23327.07567085 -.00000250  00000+0 -71867-3 0  9995
2 49201  87.8989 146.7246 0001576  96.5188 263.6120 13.13467961109194
ONEWEB-0336             
1 49202U 21083S   23326.89158197  .00000240  00000+0  62229-3 0  9994
2 49202  87.8989 146.7593 0001410  86.6738 273.4552 13.13470178107873
ONEWEB-0337             
1 49203U 21083T   23327.50946172  .00000158  00000+0  39726-3 0  9996
2 49203  87.8989 146.6347 0001615  93.4318 266.6996 13.13471232109259
